CCSDS_OMM_VERS = 2.0
CREATION_DATE  = 
ORIGINATOR     = 

OBJECT_NAME    = UNKNOWN
OBJECT_ID      = 
CENTER_NAME    = EARTH
REF_FRAME      = TEME
TIME_SYSTEM    = UTC
MEAN_ELEMENT_THEORY = SGP/SGP4

EPOCH          = 2025-10-27T02:36:06.796800
MEAN_MOTION    = 13.91518397
ECCENTRICITY   = .0226919
INCLINATION    = 98.7824
RA_OF_ASC_NODE = 175.6918
ARG_OF_PERICENTER = 254.6050
MEAN_ANOMALY   = 102.9939

EPHEMERIS_TYPE = 0
CLASSIFICATION_TYPE = U
NORAD_CAT_ID   = 89213
ELEMENT_SET_NO = 999
REV_AT_EPOCH   = 44618
BSTAR          = .43693E-3
MEAN_MOTION_DOT = .639E-5
MEAN_MOTION_DDOT = 0

CCSDS_OMM_VERS = 2.0
CREATION_DATE  = 
ORIGINATOR     = 

OBJECT_NAME    = UNKNOWN
OBJECT_ID      = 
CENTER_NAME    = EARTH
REF_FRAME      = TEME
TIME_SYSTEM    = UTC
MEAN_ELEMENT_THEORY = SGP/SGP4

EPOCH          = 2025-10-26T17:54:48.286080
MEAN_MOTION    = 9.23421961
ECCENTRICITY   = .2846268
INCLINATION    = 62.4765
RA_OF_ASC_NODE = 64.8040
ARG_OF_PERICENTER = 96.3523
MEAN_ANOMALY   = 296.4787

EPHEMERIS_TYPE = 0
CLASSIFICATION_TYPE = U
NORAD_CAT_ID   = 89251
ELEMENT_SET_NO = 999
REV_AT_EPOCH   = 36884
BSTAR          = .66452E-2
MEAN_MOTION_DOT = .11862E-3
MEAN_MOTION_DDOT = 0

CCSDS_OMM_VERS = 2.0
CREATION_DATE  = 
ORIGINATOR     = 

OBJECT_NAME    = UNKNOWN
OBJECT_ID      = 
CENTER_NAME    = EARTH
REF_FRAME      = TEME
TIME_SYSTEM    = UTC
MEAN_ELEMENT_THEORY = SGP/SGP4

EPOCH          = 2025-10-21T06:21:31.859712
MEAN_MOTION    = 14.42956726
ECCENTRICITY   = .0012163
INCLINATION    = 98.1524
RA_OF_ASC_NODE = 290.9399
ARG_OF_PERICENTER = 324.3510
MEAN_ANOMALY   = 35.6867

EPHEMERIS_TYPE = 0
CLASSIFICATION_TYPE = U
NORAD_CAT_ID   = 89261
ELEMENT_SET_NO = 999
REV_AT_EPOCH   = 52624
BSTAR          = .51756E-3
MEAN_MOTION_DOT = .1692E-4
MEAN_MOTION_DDOT = 0

CCSDS_OMM_VERS = 2.0
CREATION_DATE  = 
ORIGINATOR     = 

OBJECT_NAME    = UNKNOWN
OBJECT_ID      = 
CENTER_NAME    = EARTH
REF_FRAME      = TEME
TIME_SYSTEM    = UTC
MEAN_ELEMENT_THEORY = SGP/SGP4

EPOCH          = 2025-10-26T18:05:06.925632
MEAN_MOTION    = 9.02139122
ECCENTRICITY   = .2846545
INCLINATION    = 84.4132
RA_OF_ASC_NODE = 116.3690
ARG_OF_PERICENTER = 46.1369
MEAN_ANOMALY   = 343.9843

EPHEMERIS_TYPE = 0
CLASSIFICATION_TYPE = U
NORAD_CAT_ID   = 89304
ELEMENT_SET_NO = 999
REV_AT_EPOCH   = 43416
BSTAR          = .1159E-1
MEAN_MOTION_DOT = .8851E-4
MEAN_MOTION_DDOT = 0

CCSDS_OMM_VERS = 2.0
CREATION_DATE  = 
ORIGINATOR     = 

OBJECT_NAME    = UNKNOWN
OBJECT_ID      = 
CENTER_NAME    = EARTH
REF_FRAME      = TEME
TIME_SYSTEM    = UTC
MEAN_ELEMENT_THEORY = SGP/SGP4

EPOCH          = 2025-10-13T04:27:41.594112
MEAN_MOTION    = 2.60141272
ECCENTRICITY   = .6978404
INCLINATION    = 18.9506
RA_OF_ASC_NODE = 212.2276
ARG_OF_PERICENTER = 201.8059
MEAN_ANOMALY   = 100.8752

EPHEMERIS_TYPE = 0
CLASSIFICATION_TYPE = U
NORAD_CAT_ID   = 89314
ELEMENT_SET_NO = 999
REV_AT_EPOCH   = 8727
BSTAR          = .96919E-2
MEAN_MOTION_DOT = .6746E-4
MEAN_MOTION_DDOT = 0

CCSDS_OMM_VERS = 2.0
CREATION_DATE  = 
ORIGINATOR     = 

OBJECT_NAME    = UNKNOWN
OBJECT_ID      = 
CENTER_NAME    = EARTH
REF_FRAME      = TEME
TIME_SYSTEM    = UTC
MEAN_ELEMENT_THEORY = SGP/SGP4

EPOCH          = 2025-10-27T10:45:03.627360
MEAN_MOTION    = 12.96221434
ECCENTRICITY   = .0029477
INCLINATION    = 90.2483
RA_OF_ASC_NODE = 6.3130
ARG_OF_PERICENTER = 32.5718
MEAN_ANOMALY   = 327.7213

EPHEMERIS_TYPE = 0
CLASSIFICATION_TYPE = U
NORAD_CAT_ID   = 89349
ELEMENT_SET_NO = 999
REV_AT_EPOCH   = 47275
BSTAR          = -.51033E-3
MEAN_MOTION_DOT = -.138E-5
MEAN_MOTION_DDOT = 0

CCSDS_OMM_VERS = 2.0
CREATION_DATE  = 
ORIGINATOR     = 

OBJECT_NAME    = UNKNOWN
OBJECT_ID      = 
CENTER_NAME    = EARTH
REF_FRAME      = TEME
TIME_SYSTEM    = UTC
MEAN_ELEMENT_THEORY = SGP/SGP4

EPOCH          = 2025-10-26T18:54:09.249120
MEAN_MOTION    = 13.62176097
ECCENTRICITY   = .00443
INCLINATION    = 100.4818
RA_OF_ASC_NODE = 311.5784
ARG_OF_PERICENTER = 241.0672
MEAN_ANOMALY   = 118.6019

EPHEMERIS_TYPE = 0
CLASSIFICATION_TYPE = U
NORAD_CAT_ID   = 89379
ELEMENT_SET_NO = 999
REV_AT_EPOCH   = 57438
BSTAR          = .61671E-2
MEAN_MOTION_DOT = .4749E-4
MEAN_MOTION_DDOT = 0

CCSDS_OMM_VERS = 2.0
CREATION_DATE  = 
ORIGINATOR     = 

OBJECT_NAME    = UNKNOWN
OBJECT_ID      = 
CENTER_NAME    = EARTH
REF_FRAME      = TEME
TIME_SYSTEM    = UTC
MEAN_ELEMENT_THEORY = SGP/SGP4

EPOCH          = 2025-10-27T09:00:03.282336
MEAN_MOTION    = 12.01494403
ECCENTRICITY   = .0221817
INCLINATION    = 102.3563
RA_OF_ASC_NODE = 271.2209
ARG_OF_PERICENTER = 204.4949
MEAN_ANOMALY   = 318.8497

EPHEMERIS_TYPE = 0
CLASSIFICATION_TYPE = U
NORAD_CAT_ID   = 89395
ELEMENT_SET_NO = 999
REV_AT_EPOCH   = 51917
BSTAR          = .55657E-2
MEAN_MOTION_DOT = .45E-5
MEAN_MOTION_DDOT = 0

CCSDS_OMM_VERS = 2.0
CREATION_DATE  = 
ORIGINATOR     = 

OBJECT_NAME    = UNKNOWN
OBJECT_ID      = 
CENTER_NAME    = EARTH
REF_FRAME      = TEME
TIME_SYSTEM    = UTC
MEAN_ELEMENT_THEORY = SGP/SGP4

EPOCH          = 2025-10-27T16:00:54.273312
MEAN_MOTION    = 12.98702820
ECCENTRICITY   = .0023887
INCLINATION    = 90.2494
RA_OF_ASC_NODE = 4.7594
ARG_OF_PERICENTER = 343.3470
MEAN_ANOMALY   = 170.7181

EPHEMERIS_TYPE = 0
CLASSIFICATION_TYPE = U
NORAD_CAT_ID   = 89403
ELEMENT_SET_NO = 999
REV_AT_EPOCH   = 47184
BSTAR          = .45057E-2
MEAN_MOTION_DOT = .1339E-4
MEAN_MOTION_DDOT = 0

CCSDS_OMM_VERS = 2.0
CREATION_DATE  = 
ORIGINATOR     = 

OBJECT_NAME    = UNKNOWN
OBJECT_ID      = 
CENTER_NAME    = EARTH
REF_FRAME      = TEME
TIME_SYSTEM    = UTC
MEAN_ELEMENT_THEORY = SGP/SGP4

EPOCH          = 2025-10-27T14:58:09.980832
MEAN_MOTION    = 9.09345232
ECCENTRICITY   = .2852602
INCLINATION    = 84.1381
RA_OF_ASC_NODE = 167.8055
ARG_OF_PERICENTER = 87.0307
MEAN_ANOMALY   = 304.9054

EPHEMERIS_TYPE = 0
CLASSIFICATION_TYPE = U
NORAD_CAT_ID   = 89484
ELEMENT_SET_NO = 999
REV_AT_EPOCH   = 35123
BSTAR          = .50703E-1
MEAN_MOTION_DOT = .53159E-3
MEAN_MOTION_DDOT = 0

CCSDS_OMM_VERS = 2.0
CREATION_DATE  = 
ORIGINATOR     = 

OBJECT_NAME    = UNKNOWN
OBJECT_ID      = 
CENTER_NAME    = EARTH
REF_FRAME      = TEME
TIME_SYSTEM    = UTC
MEAN_ELEMENT_THEORY = SGP/SGP4

EPOCH          = 2025-10-27T03:51:51.806592
MEAN_MOTION    = 14.15872458
ECCENTRICITY   = .0083783
INCLINATION    = 99.0291
RA_OF_ASC_NODE = 8.4030
ARG_OF_PERICENTER = 171.8317
MEAN_ANOMALY   = 188.4243

EPHEMERIS_TYPE = 0
CLASSIFICATION_TYPE = U
NORAD_CAT_ID   = 89493
ELEMENT_SET_NO = 999
REV_AT_EPOCH   = 45735
BSTAR          = .17131E-2
MEAN_MOTION_DOT = .3443E-4
MEAN_MOTION_DDOT = 0

CCSDS_OMM_VERS = 2.0
CREATION_DATE  = 
ORIGINATOR     = 

OBJECT_NAME    = UNKNOWN
OBJECT_ID      = 
CENTER_NAME    = EARTH
REF_FRAME      = TEME
TIME_SYSTEM    = UTC
MEAN_ELEMENT_THEORY = SGP/SGP4

EPOCH          = 2025-10-26T22:19:52.586400
MEAN_MOTION    = 14.15803188
ECCENTRICITY   = .0084416
INCLINATION    = 99.0288
RA_OF_ASC_NODE = 8.0602
ARG_OF_PERICENTER = 172.5472
MEAN_ANOMALY   = 187.6978

EPHEMERIS_TYPE = 0
CLASSIFICATION_TYPE = U
NORAD_CAT_ID   = 89494
ELEMENT_SET_NO = 999
REV_AT_EPOCH   = 45717
BSTAR          = .18151E-2
MEAN_MOTION_DOT = .3648E-4
MEAN_MOTION_DDOT = 0

