UNKNOWN                 
1 89213U          25300.10841200  .00000639  00000+0  43693-3 0  9994
2 89213  98.7824 175.6918 0226919 254.6050 102.9939 13.91518397446184
UNKNOWN                 
1 89251U          25299.74639220  .00011862  00000+0  66452-2 0  9997
2 89251  62.4765  64.8040 2846268  96.3523 296.4787  9.23421961368842
UNKNOWN                 
1 89261U          25294.26495208  .00001692  00000+0  51756-3 0  9998
2 89261  98.1524 290.9399 0012163 324.3510  35.6867 14.42956726526249
UNKNOWN                 
1 89304U          25299.75355238  .00008851  00000+0  11590-1 0  9997
2 89304  84.4132 116.3690 2846545  46.1369 343.9843  9.02139122434168
UNKNOWN                 
1 89314U          25286.18589808  .00006746  00000+0  96919-2 0  9993
2 89314  18.9506 212.2276 6978404 201.8059 100.8752  2.60141272 87273
UNKNOWN                 
1 89349U          25300.44795865 -.00000138  00000+0 -51033-3 0  9999
2 89349  90.2483   6.3130 0029477  32.5718 327.7213 12.96221434472753
UNKNOWN                 
1 89379U          25299.78760705  .00004749  00000+0  61671-2 0  9999
2 89379 100.4818 311.5784 0044300 241.0672 118.6019 13.62176097574387
UNKNOWN                 
1 89395U          25300.37503799  .00000450  00000+0  55657-2 0  9995
2 89395 102.3563 271.2209 0221817 204.4949 318.8497 12.01494403519173
UNKNOWN                 
1 89403U          25300.66729483  .00001339  00000+0  45057-2 0  9997
2 89403  90.2494   4.7594 0023887 343.3470 170.7181 12.98702820471843
UNKNOWN                 
1 89484U          25300.62372663  .00053159  00000+0  50703-1 0  9996
2 89484  84.1381 167.8055 2852602  87.0307 304.9054  9.09345232351238
UNKNOWN                 
1 89493U          25300.16101628  .00003443  00000+0  17131-2 0  9996
2 89493  99.0291   8.4030 0083783 171.8317 188.4243 14.15872458457356
UNKNOWN                 
1 89494U          25299.93046975  .00003648  00000+0  18151-2 0  9992
2 89494  99.0288   8.0602 0084416 172.5472 187.6978 14.15803188457178
